[
    {
        "Altitude(m)": 624790.8363938407,
        "Argument of Periapsis(deg)": 0.0,
        "Eccentricity": 0.0,
        "Inclination(deg)": 60.0,
        "Latitude(deg)": -59.14724089537935,
        "Longitude(deg)": -103.96544257005692,
        "Mean Anomaly(deg)": 278.1818,
        "RAAN(deg)": 70.0,
        "Satellite Name": "Test1 325",
        "Satellite Number": 325,
        "Semi-Major Axis(m)": 6980739.136638005,
        "Time(s)": 0
    },
    {
        "Altitude(m)": 624737.4917608934,
        "Argument of Periapsis(deg)": 0.00010418945913296404,
        "Eccentricity": 0.0,
        "Inclination(deg)": 60.0,
        "Latitude(deg)": -58.99469658727286,
        "Longitude(deg)": -102.84593617274966,
        "Mean Anomaly(deg)": 278.8019061454618,
        "RAAN(deg)": 69.99957995086027,
        "Satellite Name": "Test1 325",
        "Satellite Number": 325,
        "Semi-Major Axis(m)": 6980739.136638005,
        "Time(s)": 10
    }
]